H1 CPF  1  DLR 2022 09 01 10  7442 technosat            
H2  1704205 6203    42829 2022 09 01 00 00 00 2022 09 08 00 00 00    60 1 1  0 0 0
H9
10 0 59829  28800.000000  0      -4402248.552       -187406.660       5382788.052
10 0 59829  28860.000000  0      -4741563.508        -88467.657       5090390.201
10 0 59829  28920.000000  0      -5059937.251         13723.228       4776299.183
10 0 59829  28980.000000  0      -5355996.983        118544.400       4441853.438
10 0 59829  29040.000000  0      -5628470.445        225351.577       4088478.566
10 0 59829  29100.000000  0      -5876191.603        333481.441       3717681.251
10 0 59829  29160.000000  0      -6098105.927        442255.444       3331042.813
10 0 59829  29220.000000  0      -6293275.184        550983.750       2930212.359
10 0 59829  29280.000000  0      -6460881.633        658969.258       2516899.559
10 0 59829  29340.000000  0      -6600231.623        765511.679       2092867.178
10 0 59829  29400.000000  0      -6710758.665        869911.652       1659923.356
10 0 59829  29460.000000  0      -6792025.862        971474.878       1219913.620
10 0 59829  29520.000000  0      -6843727.686       1069516.254        774712.717
10 0 59829  29580.000000  0      -6865691.107       1163363.985        326216.330
10 0 59829  29640.000000  0      -6857876.039       1252363.625       -123667.326
10 0 59829  29700.000000  0      -6820375.103       1335882.012       -573025.905
10 0 59829  29760.000000  0      -6753412.771       1413311.091      -1019951.304
10 0 59829  29820.000000  0      -6657343.863       1484071.585      -1462547.962
10 0 59829  29880.000000  0      -6532651.520       1547616.555      -1898941.046
10 0 59829  29940.000000  0      -6379944.539       1603434.834      -2327284.608
10 0 59829  30000.000000  0      -6199954.043       1651054.224      -2745769.574
10 0 59829  30060.000000  0      -5993529.558       1690044.422      -3152631.474
10 0 59829  30120.000000  0      -5761634.573       1720019.726      -3546157.862
10 0 59829  30180.000000  0      -5505341.610       1740641.508      -3924695.422
10 0 59829  30240.000000  0      -5225826.867       1751620.427      -4286656.751
10 0 59829  30300.000000  0      -4924364.435       1752718.393      -4630526.815
10 0 59829  30360.000000  0      -4602320.109       1743750.246      -4954869.011
10 0 59829  30420.000000  0      -4261144.887       1724585.139      -5258330.812
10 0 59829  30480.000000  0      -3902368.202       1695147.673      -5539649.025
10 0 59829  30540.000000  0      -3527590.892       1655418.739      -5797654.665
10 0 59829  30600.000000  0      -3138477.930       1605436.047      -6031277.427
10 0 59829  30660.000000  0      -2736750.965       1545294.367      -6239549.727
10 0 59829  30720.000000  0      -2324180.653       1475145.533      -6421610.334
10 0 59829  30780.000000  0      -1902578.817       1395198.146      -6576707.474
10 0 59829  30840.000000  0      -1473790.627       1305716.977      -6704201.475
10 0 59829  30900.000000  0      -1039686.737       1207022.088      -6803567.077
10 0 59829  30960.000000  0       -602155.310       1099487.698      -6874395.280
10 0 59829  31020.000000  0       -163094.117        983540.812      -6916394.727
10 0 59829  31080.000000  0        275597.320        859659.590      -6929392.796
10 0 59829  31140.000000  0        712025.669        728371.431      -6913336.358
10 0 59829  31200.000000  0       1144311.798        590250.775      -6868292.000
10 0 59829  31260.000000  0       1570598.622        445916.682      -6794445.696
10 0 59829  31320.000000  0       1989058.778        296030.153      -6692102.100
10 0 59829  31380.000000  0       2397902.181        141291.252      -6561683.491
10 0 59829  31440.000000  0       2795383.564        -17563.986      -6403728.308
10 0 59829  31500.000000  0       3179809.803       -179766.909      -6218889.124
10 0 59829  31560.000000  0       3549546.952       -344519.807      -6007930.225
10 0 59829  31620.000000  0       3903027.088       -510999.622      -5771724.831
10 0 59829  31680.000000  0       4238754.955       -678361.836      -5511251.952
10 0 59829  31740.000000  0       4555314.440       -845744.587      -5227592.793
10 0 59829  31800.000000  0       4851374.717      -1012272.937      -4921926.643
10 0 59829  31860.000000  0       5125696.042      -1177063.239      -4595526.358
10 0 59829  31920.000000  0       5377135.193      -1339227.619      -4249753.439
10 0 59829  31980.000000  0       5604650.536      -1497878.568      -3886052.709
10 0 59829  32040.000000  0       5807306.698      -1652133.595      -3505946.575
10 0 59829  32100.000000  0       5984278.772      -1801119.942      -3111028.920
10 0 59829  32160.000000  0       6134856.075      -1943979.320      -2702958.619
10 0 59829  32220.000000  0       6258445.395      -2079872.654      -2283452.709
10 0 59829  32280.000000  0       6354573.691      -2207984.771      -1854279.236
10 0 59829  32340.000000  0       6422890.265      -2327529.019      -1417249.857
10 0 59829  32400.000000  0       6463168.390      -2437751.810       -974212.167
10 0 59829  32460.000000  0       6475306.349      -2537937.052       -527041.809
10 0 59829  32520.000000  0       6459327.865      -2627410.435        -77634.382
10 0 59829  32580.000000  0       6415381.928      -2705543.529        372102.765
10 0 59829  32640.000000  0       6343742.060      -2771757.660        820258.848
10 0 59829  32700.000000  0       6244804.947      -2825527.583       1264928.053
10 0 59829  32760.000000  0       6119088.405      -2866384.906       1704217.976
10 0 59829  32820.000000  0       5967228.693      -2893921.199       2136257.919
10 0 59829  32880.000000  0       5789977.401      -2907790.865       2559207.077
10 0 59829  32940.000000  0       5588197.721      -2907713.659       2971262.738
10 0 59829  33000.000000  0       5362860.067      -2893476.806       3370668.229
10 0 59829  33060.000000  0       5115037.253      -2864936.804       3755720.523
10 0 59829  33120.000000  0       4845899.285      -2822020.899       4124777.650
10 0 59829  33180.000000  0       4556707.720      -2764728.198       4476265.836
10 0 59829  33240.000000  0       4248809.600      -2693130.462       4808686.420
10 0 59829  33300.000000  0       3923630.872      -2607372.493       5120622.394
10 0 59829  33360.000000  0       3582669.477      -2507672.100       5410744.457
10 0 59829  33420.000000  0       3227488.210      -2394319.668       5677816.636
10 0 59829  33480.000000  0       2859707.369      -2267677.396       5920701.499
10 0 59829  33540.000000  0       2480997.169      -2128178.176       6138364.973
10 0 59829  33600.000000  0       2093069.935      -1976324.107       6329880.653
10 0 59829  33660.000000  0       1697672.225      -1812684.669       6494433.648
10 0 59829  33720.000000  0       1296576.793      -1637894.548       6631323.996
10 0 59829  33780.000000  0        891574.464      -1452651.110       6739969.506
10 0 59829  33840.000000  0        484466.064      -1257711.561       6819908.120
10 0 59829  33900.000000  0         77054.315      -1053889.783       6870799.819
10 0 59829  33960.000000  0       -328864.225       -842052.874       6892427.946
10 0 59829  34020.000000  0       -731507.096       -623117.456       6884700.096
10 0 59829  34080.000000  0      -1129113.850       -398045.662       6847648.541
10 0 59829  34140.000000  0      -1519953.811       -167840.861       6781430.070
10 0 59829  34200.000000  0      -1902333.646         66456.843       6686325.372
10 0 59829  34260.000000  0      -2274604.787        303775.338       6562737.928
10 0 59829  34320.000000  0      -2635170.644        543015.446       6411192.377
10 0 59829  34380.000000  0      -2982493.548        783056.024       6232332.379
10 0 59829  34440.000000  0      -3315101.455       1022759.239       6026918.037
10 0 59829  34500.000000  0      -3631594.373       1260975.990       5795822.782
10 0 59829  34560.000000  0      -3930650.455       1496551.447       5540029.773
10 0 59829  34620.000000  0      -4211031.752       1728330.681       5260627.826
10 0 59829  34680.000000  0      -4471589.591       1955164.390       4958806.837
10 0 59829  34740.000000  0      -4711269.504       2175914.647       4635852.717
10 0 59829  34800.000000  0      -4929115.689       2389460.675       4293141.904
10 0 59829  34860.000000  0      -5124275.012       2594704.553       3932135.480
10 0 59829  34920.000000  0      -5296000.541       2790576.865       3554372.880
10 0 59829  34980.000000  0      -5443654.550       2976042.285       3161465.255
10 0 59829  35040.000000  0      -5566711.021       3150105.039       2755088.501
10 0 59829  35100.000000  0      -5664757.651       3311814.216       2336975.983
10 0 59829  35160.000000  0      -5737497.292       3460268.956       1908910.920
10 0 59829  35220.000000  0      -5784748.783       3594623.374       1472718.492
10 0 59829  35280.000000  0      -5806447.175       3714091.184       1030257.732
10 0 59829  35340.000000  0      -5802643.343       3817950.036        583413.356
10 0 59829  35400.000000  0      -5773503.145       3905545.604        134087.505
10 0 59829  35460.000000  0      -5719305.968       3976295.303       -315808.691
10 0 59829  35520.000000  0      -5640442.697       4029691.656       -764363.464
10 0 59829  35580.000000  0      -5537413.227       4065305.366      -1209672.810
10 0 59829  35640.000000  0      -5410823.362       4082787.925      -1649848.903
10 0 59829  35700.000000  0      -5261381.156       4081873.776      -2083028.319
10 0 59829  35760.000000  0      -5089892.816       4062382.064      -2507380.037
10 0 59829  35820.000000  0      -4897258.186       4024218.012      -2921113.246
10 0 59829  35880.000000  0      -4684465.820       3967373.826      -3322484.975
10 0 59829  35940.000000  0      -4452587.622       3891929.136      -3709807.363
99
